<?xml version="1.0" encoding="UTF-8"?>
<kml xmlns="http://www.opengis.net/kml/2.2"><Document>
<name>Network traffic - traffic2.pcap</name>
<Style id="alert"><LineStyle><color>ff3c14e3</color><width>2</width></LineStyle><IconStyle><color>ff3c14e3</color><scale>0.9</scale><Icon><href>http://maps.google.com/mapfiles/kml/shapes/placemark_circle.png</href></Icon></IconStyle></Style>
<Style id="plaintext"><LineStyle><color>ff1a9df5</color><width>2</width></LineStyle><IconStyle><color>ff1a9df5</color><scale>0.9</scale><Icon><href>http://maps.google.com/mapfiles/kml/shapes/placemark_circle.png</href></Icon></IconStyle></Style>
<Style id="encrypted"><LineStyle><color>ff99cd05</color><width>2</width></LineStyle><IconStyle><color>ff99cd05</color><scale>0.9</scale><Icon><href>http://maps.google.com/mapfiles/kml/shapes/placemark_circle.png</href></Icon></IconStyle></Style>
<Style id="other"><LineStyle><color>ffff7a43</color><width>2</width></LineStyle><IconStyle><color>ffff7a43</color><scale>0.9</scale><Icon><href>http://maps.google.com/mapfiles/kml/shapes/placemark_circle.png</href></Icon></IconStyle></Style>
<Placemark><name>India</name><description>182.66.218.121</description><Point><coordinates>77.0,20.0,0</coordinates></Point></Placemark>
<Folder><name>Australia (1)</name>
<Placemark><name>ib.adnxs.com</name><description><![CDATA[IP: 103.43.90.19
Host: ib.adnxs.com
Organisation: -
Location: Sydney, Australia
Services: HTTPS
Ports: 443
Sent: 7.3 KB  Received: 4.6 KB  Packets: 28
Status: encrypted  Alerts: 0
First seen: 2025-11-08 14:09:11
Last seen: 2025-11-08 14:09:12]]></description><styleUrl>#encrypted</styleUrl><MultiGeometry><Point><coordinates>151.1982,-33.8612,0</coordinates></Point><LineString><tessellate>1</tessellate><coordinates>77.0,20.0,0 151.1982,-33.8612,0</coordinates></LineString></MultiGeometry></Placemark>
</Folder>
<Folder><name>Belgium (1)</name>
<Placemark><name>whatsapp-chatd-edge-shv-02-maa3.facebook.com</name><description><![CDATA[IP: 57.144.211.33
Host: whatsapp-chatd-edge-shv-02-maa3.facebook.com
Organisation: Meta
Location: Belgium
Services: HTTPS
Ports: 443
Sent: 1.1 KB  Received: 1.7 KB  Packets: 22
Status: encrypted  Alerts: 0
First seen: 2025-11-08 14:08:52
Last seen: 2025-11-08 14:09:08]]></description><styleUrl>#encrypted</styleUrl><MultiGeometry><Point><coordinates>4.35,50.85,0</coordinates></Point><LineString><tessellate>1</tessellate><coordinates>77.0,20.0,0 4.35,50.85,0</coordinates></LineString></MultiGeometry></Placemark>
</Folder>
<Folder><name>China (1)</name>
<Placemark><name>match.360yield.com</name><description><![CDATA[IP: 119.8.187.97
Host: match.360yield.com
Organisation: -
Location: China
Services: HTTPS
Ports: 443
Sent: 4.1 KB  Received: 5.7 KB  Packets: 26
Status: encrypted  Alerts: 0
First seen: 2025-11-08 14:09:10
Last seen: 2025-11-08 14:09:10]]></description><styleUrl>#encrypted</styleUrl><MultiGeometry><Point><coordinates>113.1136,28.1792,0</coordinates></Point><LineString><tessellate>1</tessellate><coordinates>77.0,20.0,0 113.1136,28.1792,0</coordinates></LineString></MultiGeometry></Placemark>
</Folder>
<Folder><name>Denmark (1)</name>
<Placemark><name>c1.adform.net</name><description><![CDATA[IP: 185.84.60.23
Host: c1.adform.net
Organisation: -
Location: Denmark
Services: HTTPS
Ports: 443
Sent: 3.3 KB  Received: 7.9 KB  Packets: 27
Status: encrypted  Alerts: 0
First seen: 2025-11-08 14:09:11
Last seen: 2025-11-08 14:09:11]]></description><styleUrl>#encrypted</styleUrl><MultiGeometry><Point><coordinates>12.0564,55.7123,0</coordinates></Point><LineString><tessellate>1</tessellate><coordinates>77.0,20.0,0 12.0564,55.7123,0</coordinates></LineString></MultiGeometry></Placemark>
</Folder>
<Folder><name>India (2)</name>
<Placemark><name>www.flipkart.com</name><description><![CDATA[IP: 103.243.32.90
Host: www.flipkart.com
Organisation: Flipkart
Location: India
Services: HTTPS
Ports: 443
Sent: 13.7 KB  Received: 265.7 KB  Packets: 292
Status: encrypted  Alerts: 0
First seen: 2025-11-08 14:09:12
Last seen: 2025-11-08 14:09:14]]></description><styleUrl>#encrypted</styleUrl><MultiGeometry><Point><coordinates>77.0,20.0,0</coordinates></Point><LineString><tessellate>1</tessellate><coordinates>77.0,20.0,0 77.0,20.0,0</coordinates></LineString></MultiGeometry></Placemark>
<Placemark><name>metrics.media-amazon.com</name><description><![CDATA[IP: 151.101.157.51
Host: metrics.media-amazon.com
Organisation: Amazon
Location: Chennai, India
Services: HTTPS
Ports: 443
Sent: 264 B  Received: 222 B  Packets: 7
Status: encrypted  Alerts: 0
First seen: 2025-11-08 14:09:03
Last seen: 2025-11-08 14:09:05]]></description><styleUrl>#encrypted</styleUrl><MultiGeometry><Point><coordinates>80.2833,13.0833,0</coordinates></Point><LineString><tessellate>1</tessellate><coordinates>77.0,20.0,0 80.2833,13.0833,0</coordinates></LineString></MultiGeometry></Placemark>
</Folder>
<Folder><name>Ireland (3)</name>
<Placemark><name>aax-eu.amazon-adsystem.com</name><description><![CDATA[IP: 52.94.220.185
Host: aax-eu.amazon-adsystem.com
Organisation: Amazon
Location: Dublin, Ireland
Services: HTTPS
Ports: 443
Sent: 12.9 KB  Received: 23.0 KB  Packets: 75
Status: encrypted  Alerts: 0
First seen: 2025-11-08 14:09:08
Last seen: 2025-11-08 14:09:15]]></description><styleUrl>#encrypted</styleUrl><MultiGeometry><Point><coordinates>-6.2489,53.3331,0</coordinates></Point><LineString><tessellate>1</tessellate><coordinates>77.0,20.0,0 -6.2489,53.3331,0</coordinates></LineString></MultiGeometry></Placemark>
<Placemark><name>p47r3qkl5raepa5flsczs7khqq.appsync-realtime-api.eu-west-1.amazonaws.com</name><description><![CDATA[IP: 52.16.32.113
Host: p47r3qkl5raepa5flsczs7khqq.appsync-realtime-api.eu-west-1.amazonaws.com
Organisation: Amazon AWS
Location: Dublin, Ireland
Services: HTTPS
Ports: 443
Sent: 9.1 KB  Received: 8.2 KB  Packets: 48
Status: encrypted  Alerts: 0
First seen: 2025-11-08 14:09:00
Last seen: 2025-11-08 14:09:20]]></description><styleUrl>#encrypted</styleUrl><MultiGeometry><Point><coordinates>-6.2489,53.3331,0</coordinates></Point><LineString><tessellate>1</tessellate><coordinates>77.0,20.0,0 -6.2489,53.3331,0</coordinates></LineString></MultiGeometry></Placemark>
<Placemark><name>ec2-52-214-137-156.eu-west-1.compute.amazonaws.com</name><description><![CDATA[IP: 52.214.137.156
Host: ec2-52-214-137-156.eu-west-1.compute.amazonaws.com
Organisation: Amazon AWS
Location: Dublin, Ireland
Services: HTTPS
Ports: 443
Sent: 162 B  Received: 275 B  Packets: 6
Status: encrypted  Alerts: 0
First seen: 2025-11-08 14:08:53
Last seen: 2025-11-08 14:08:53]]></description><styleUrl>#encrypted</styleUrl><MultiGeometry><Point><coordinates>-6.2489,53.3331,0</coordinates></Point><LineString><tessellate>1</tessellate><coordinates>77.0,20.0,0 -6.2489,53.3331,0</coordinates></LineString></MultiGeometry></Placemark>
</Folder>
<Folder><name>United Kingdom (1)</name>
<Placemark><name>api.stores.eu-south-2.prod.paets.advertising.amazon.dev</name><description><![CDATA[IP: 51.94.212.156
Host: api.stores.eu-south-2.prod.paets.advertising.amazon.dev
Organisation: Amazon
Location: United Kingdom
Services: HTTPS
Ports: 443
Sent: 8.8 KB  Received: 16.3 KB  Packets: 73
Status: encrypted  Alerts: 0
First seen: 2025-11-08 14:08:59
Last seen: 2025-11-08 14:09:15]]></description><styleUrl>#encrypted</styleUrl><MultiGeometry><Point><coordinates>-0.1224,51.4964,0</coordinates></Point><LineString><tessellate>1</tessellate><coordinates>77.0,20.0,0 -0.1224,51.4964,0</coordinates></LineString></MultiGeometry></Placemark>
</Folder>
<Folder><name>United States (30)</name>
<Placemark><name>rukminim2.flixcart.com</name><description><![CDATA[IP: 184.51.195.235
Host: rukminim2.flixcart.com
Organisation: Flipkart
Location: United States
Services: HTTPS
Ports: 443
Sent: 47.5 KB  Received: 2.5 MB  Packets: 2430
Status: encrypted  Alerts: 0
First seen: 2025-11-08 14:09:12
Last seen: 2025-11-08 14:09:18]]></description><styleUrl>#encrypted</styleUrl><MultiGeometry><Point><coordinates>-118.244,34.0544,0</coordinates></Point><LineString><tessellate>1</tessellate><coordinates>77.0,20.0,0 -118.244,34.0544,0</coordinates></LineString></MultiGeometry></Placemark>
<Placemark><name>unagi.amazon.in</name><description><![CDATA[IP: 3.254.239.161
Host: unagi.amazon.in
Organisation: Amazon
Location: United States
Services: HTTPS
Ports: 443
Sent: 322.4 KB  Received: 100.3 KB  Packets: 683
Status: encrypted  Alerts: 0
First seen: 2025-11-08 14:08:57
Last seen: 2025-11-08 14:09:20]]></description><styleUrl>#encrypted</styleUrl><MultiGeometry><Point><coordinates>-97.822,37.751,0</coordinates></Point><LineString><tessellate>1</tessellate><coordinates>77.0,20.0,0 -97.822,37.751,0</coordinates></LineString></MultiGeometry></Placemark>
<Placemark><name>player.live-video.net</name><description><![CDATA[IP: 18.67.161.8
Host: player.live-video.net
Organisation: Amazon IVS / Twitch
Location: Cambridge, United States
Services: HTTPS
Ports: 443
Sent: 13.0 KB  Received: 366.6 KB  Packets: 405
Status: encrypted  Alerts: 0
First seen: 2025-11-08 14:09:00
Last seen: 2025-11-08 14:09:02]]></description><styleUrl>#encrypted</styleUrl><MultiGeometry><Point><coordinates>-71.1028,42.3646,0</coordinates></Point><LineString><tessellate>1</tessellate><coordinates>77.0,20.0,0 -71.1028,42.3646,0</coordinates></LineString></MultiGeometry></Placemark>
<Placemark><name>data.amazon.in</name><description><![CDATA[IP: 18.161.242.236
Host: data.amazon.in
Organisation: Amazon
Location: United States
Services: HTTPS
Ports: 443
Sent: 18.5 KB  Received: 64.6 KB  Packets: 145
Status: encrypted  Alerts: 0
First seen: 2025-11-08 14:09:00
Last seen: 2025-11-08 14:09:02]]></description><styleUrl>#encrypted</styleUrl><MultiGeometry><Point><coordinates>-97.822,37.751,0</coordinates></Point><LineString><tessellate>1</tessellate><coordinates>77.0,20.0,0 -97.822,37.751,0</coordinates></LineString></MultiGeometry></Placemark>
<Placemark><name>calendar.google.com</name><description><![CDATA[IP: 142.251.222.206
Host: calendar.google.com
Organisation: Google
Location: Mountain View, United States
Services: QUIC, ICMP
Ports: 443
Sent: 17.7 KB  Received: 42.9 KB  Packets: 81
Status: encrypted  Alerts: 0
First seen: 2025-11-08 14:09:00
Last seen: 2025-11-08 14:09:18]]></description><styleUrl>#encrypted</styleUrl><MultiGeometry><Point><coordinates>-122.0574,37.4192,0</coordinates></Point><LineString><tessellate>1</tessellate><coordinates>77.0,20.0,0 -122.0574,37.4192,0</coordinates></LineString></MultiGeometry></Placemark>
<Placemark><name>unagi-na.amazon.com</name><description><![CDATA[IP: 44.215.129.188
Host: unagi-na.amazon.com
Organisation: Amazon
Location: San Diego, United States
Services: HTTPS
Ports: 443
Sent: 27.5 KB  Received: 30.1 KB  Packets: 147
Status: encrypted  Alerts: 0
First seen: 2025-11-08 14:09:03
Last seen: 2025-11-08 14:09:18]]></description><styleUrl>#encrypted</styleUrl><MultiGeometry><Point><coordinates>-117.1649,32.8072,0</coordinates></Point><LineString><tessellate>1</tessellate><coordinates>77.0,20.0,0 -117.1649,32.8072,0</coordinates></LineString></MultiGeometry></Placemark>
<Placemark><name>sonic.fdp.api.flipkart.com</name><description><![CDATA[IP: 34.36.209.50
Host: sonic.fdp.api.flipkart.com
Organisation: Flipkart
Location: Houston, United States
Services: QUIC, HTTPS
Ports: 443
Sent: 22.9 KB  Received: 13.7 KB  Packets: 80
Status: encrypted  Alerts: 0
First seen: 2025-11-08 14:09:13
Last seen: 2025-11-08 14:09:16]]></description><styleUrl>#encrypted</styleUrl><MultiGeometry><Point><coordinates>-95.3454,29.9668,0</coordinates></Point><LineString><tessellate>1</tessellate><coordinates>77.0,20.0,0 -95.3454,29.9668,0</coordinates></LineString></MultiGeometry></Placemark>
<Placemark><name>bam.nr-data.net</name><description><![CDATA[IP: 162.247.243.29
Host: bam.nr-data.net
Organisation: -
Location: United States
Services: HTTPS, ICMP
Ports: 443
Sent: 21.4 KB  Received: 10.3 KB  Packets: 64
Status: encrypted  Alerts: 0
First seen: 2025-11-08 14:09:14
Last seen: 2025-11-08 14:09:16]]></description><styleUrl>#encrypted</styleUrl><MultiGeometry><Point><coordinates>-97.822,37.751,0</coordinates></Point><LineString><tessellate>1</tessellate><coordinates>77.0,20.0,0 -97.822,37.751,0</coordinates></LineString></MultiGeometry></Placemark>
<Placemark><name>player.stats.live-video.net</name><description><![CDATA[IP: 54.190.62.8
Host: player.stats.live-video.net
Organisation: Amazon IVS / Twitch
Location: Boardman, United States
Services: HTTPS
Ports: 443
Sent: 12.1 KB  Received: 13.0 KB  Packets: 78
Status: encrypted  Alerts: 0
First seen: 2025-11-08 14:09:03
Last seen: 2025-11-08 14:09:06]]></description><styleUrl>#encrypted</styleUrl><MultiGeometry><Point><coordinates>-119.688,45.8696,0</coordinates></Point><LineString><tessellate>1</tessellate><coordinates>77.0,20.0,0 -119.688,45.8696,0</coordinates></LineString></MultiGeometry></Placemark>
<Placemark><name>sync.sxp.smartclip.net</name><description><![CDATA[IP: 35.186.194.101
Host: sync.sxp.smartclip.net
Organisation: -
Location: Mountain View, United States
Services: HTTPS, QUIC
Ports: 443
Sent: 8.6 KB  Received: 15.3 KB  Packets: 58
Status: encrypted  Alerts: 0
First seen: 2025-11-08 14:09:13
Last seen: 2025-11-08 14:09:14]]></description><styleUrl>#encrypted</styleUrl><MultiGeometry><Point><coordinates>-122.0574,37.4192,0</coordinates></Point><LineString><tessellate>1</tessellate><coordinates>77.0,20.0,0 -122.0574,37.4192,0</coordinates></LineString></MultiGeometry></Placemark>
<Placemark><name>ec2-63-34-150-9.eu-west-1.compute.amazonaws.com</name><description><![CDATA[IP: 63.34.150.9
Host: ec2-63-34-150-9.eu-west-1.compute.amazonaws.com
Organisation: Amazon AWS
Location: Seattle, United States
Services: HTTPS
Ports: 443
Sent: 16.2 KB  Received: 6.4 KB  Packets: 94
Status: encrypted  Alerts: 0
First seen: 2025-11-08 14:08:53
Last seen: 2025-11-08 14:09:16]]></description><styleUrl>#encrypted</styleUrl><MultiGeometry><Point><coordinates>-122.3123,47.542,0</coordinates></Point><LineString><tessellate>1</tessellate><coordinates>77.0,20.0,0 -122.3123,47.542,0</coordinates></LineString></MultiGeometry></Placemark>
<Placemark><name>a6cb17768bdb5707b10787619e4c9a967.profile.fra56-p3.cloudfront.net</name><description><![CDATA[IP: 52.222.206.170
Host: a6cb17768bdb5707b10787619e4c9a967.profile.fra56-p3.cloudfront.net
Organisation: Amazon CloudFront
Location: Seattle, United States
Services: HTTPS
Ports: 443
Sent: 5.6 KB  Received: 13.8 KB  Packets: 40
Status: encrypted  Alerts: 0
First seen: 2025-11-08 14:09:12
Last seen: 2025-11-08 14:09:13]]></description><styleUrl>#encrypted</styleUrl><MultiGeometry><Point><coordinates>-122.3422,47.6344,0</coordinates></Point><LineString><tessellate>1</tessellate><coordinates>77.0,20.0,0 -122.3422,47.6344,0</coordinates></LineString></MultiGeometry></Placemark>
<Placemark><name>p47r3qkl5raepa5flsczs7khqq.appsync-api.eu-west-1.amazonaws.com</name><description><![CDATA[IP: 108.158.251.15
Host: p47r3qkl5raepa5flsczs7khqq.appsync-api.eu-west-1.amazonaws.com
Organisation: Amazon AWS
Location: United States
Services: HTTPS
Ports: 443
Sent: 6.6 KB  Received: 11.0 KB  Packets: 44
Status: encrypted  Alerts: 0
First seen: 2025-11-08 14:09:00
Last seen: 2025-11-08 14:09:02]]></description><styleUrl>#encrypted</styleUrl><MultiGeometry><Point><coordinates>-97.822,37.751,0</coordinates></Point><LineString><tessellate>1</tessellate><coordinates>77.0,20.0,0 -97.822,37.751,0</coordinates></LineString></MultiGeometry></Placemark>
<Placemark><name>redirect.prod.experiment.routing.cloudfront.aws.a2z.com</name><description><![CDATA[IP: 44.227.15.215
Host: redirect.prod.experiment.routing.cloudfront.aws.a2z.com
Organisation: Amazon CloudFront
Location: San Diego, United States
Services: HTTPS
Ports: 443
Sent: 5.8 KB  Received: 10.9 KB  Packets: 46
Status: encrypted  Alerts: 0
First seen: 2025-11-08 14:09:11
Last seen: 2025-11-08 14:09:13]]></description><styleUrl>#encrypted</styleUrl><MultiGeometry><Point><coordinates>-117.1649,32.8072,0</coordinates></Point><LineString><tessellate>1</tessellate><coordinates>77.0,20.0,0 -117.1649,32.8072,0</coordinates></LineString></MultiGeometry></Placemark>
<Placemark><name>loadus.exelator.com</name><description><![CDATA[IP: 50.16.197.56
Host: loadus.exelator.com
Organisation: -
Location: Ashburn, United States
Services: HTTPS
Ports: 443
Sent: 6.6 KB  Received: 9.8 KB  Packets: 37
Status: encrypted  Alerts: 0
First seen: 2025-11-08 14:09:12
Last seen: 2025-11-08 14:09:14]]></description><styleUrl>#encrypted</styleUrl><MultiGeometry><Point><coordinates>-77.4728,39.0481,0</coordinates></Point><LineString><tessellate>1</tessellate><coordinates>77.0,20.0,0 -77.4728,39.0481,0</coordinates></LineString></MultiGeometry></Placemark>
<Placemark><name>rf-completion.amazon.in</name><description><![CDATA[IP: 108.158.251.78
Host: rf-completion.amazon.in
Organisation: Amazon
Location: United States
Services: HTTPS
Ports: 443
Sent: 6.0 KB  Received: 9.4 KB  Packets: 40
Status: encrypted  Alerts: 0
First seen: 2025-11-08 14:09:00
Last seen: 2025-11-08 14:09:01]]></description><styleUrl>#encrypted</styleUrl><MultiGeometry><Point><coordinates>-97.822,37.751,0</coordinates></Point><LineString><tessellate>1</tessellate><coordinates>77.0,20.0,0 -97.822,37.751,0</coordinates></LineString></MultiGeometry></Placemark>
<Placemark><name>aax-eu-zaz.amazon.in</name><description><![CDATA[IP: 18.161.246.102
Host: aax-eu-zaz.amazon.in
Organisation: Amazon
Location: United States
Services: HTTPS
Ports: 443
Sent: 8.2 KB  Received: 6.2 KB  Packets: 52
Status: encrypted  Alerts: 0
First seen: 2025-11-08 14:08:57
Last seen: 2025-11-08 14:09:16]]></description><styleUrl>#encrypted</styleUrl><MultiGeometry><Point><coordinates>-97.822,37.751,0</coordinates></Point><LineString><tessellate>1</tessellate><coordinates>77.0,20.0,0 -97.822,37.751,0</coordinates></LineString></MultiGeometry></Placemark>
<Placemark><name>www.googleadservices.com</name><description><![CDATA[IP: 142.250.183.162
Host: www.googleadservices.com
Organisation: Google
Location: Mountain View, United States
Services: QUIC
Ports: 443
Sent: 6.7 KB  Received: 6.4 KB  Packets: 54
Status: encrypted  Alerts: 0
First seen: 2025-11-08 14:08:54
Last seen: 2025-11-08 14:09:11]]></description><styleUrl>#encrypted</styleUrl><MultiGeometry><Point><coordinates>-122.0574,37.4192,0</coordinates></Point><LineString><tessellate>1</tessellate><coordinates>77.0,20.0,0 -122.0574,37.4192,0</coordinates></LineString></MultiGeometry></Placemark>
<Placemark><name>odr.mookie1.com</name><description><![CDATA[IP: 34.111.79.67
Host: odr.mookie1.com
Organisation: -
Location: Houston, United States
Services: QUIC
Ports: 443
Sent: 3.8 KB  Received: 7.9 KB  Packets: 23
Status: encrypted  Alerts: 0
First seen: 2025-11-08 14:09:10
Last seen: 2025-11-08 14:09:11]]></description><styleUrl>#encrypted</styleUrl><MultiGeometry><Point><coordinates>-95.3454,29.9668,0</coordinates></Point><LineString><tessellate>1</tessellate><coordinates>77.0,20.0,0 -95.3454,29.9668,0</coordinates></LineString></MultiGeometry></Placemark>
<Placemark><name>us-u.openx.net</name><description><![CDATA[IP: 34.98.64.218
Host: us-u.openx.net
Organisation: -
Location: Houston, United States
Services: QUIC
Ports: 443
Sent: 3.7 KB  Received: 6.2 KB  Packets: 18
Status: encrypted  Alerts: 0
First seen: 2025-11-08 14:09:15
Last seen: 2025-11-08 14:09:15]]></description><styleUrl>#encrypted</styleUrl><MultiGeometry><Point><coordinates>-95.3454,29.9668,0</coordinates></Point><LineString><tessellate>1</tessellate><coordinates>77.0,20.0,0 -95.3454,29.9668,0</coordinates></LineString></MultiGeometry></Placemark>
<Placemark><name>pixel.rubiconproject.com</name><description><![CDATA[IP: 69.173.158.64
Host: pixel.rubiconproject.com
Organisation: -
Location: Smithfield, United States
Services: HTTPS
Ports: 443
Sent: 3.5 KB  Received: 5.2 KB  Packets: 17
Status: encrypted  Alerts: 0
First seen: 2025-11-08 14:09:13
Last seen: 2025-11-08 14:09:14]]></description><styleUrl>#encrypted</styleUrl><MultiGeometry><Point><coordinates>-71.5495,41.922,0</coordinates></Point><LineString><tessellate>1</tessellate><coordinates>77.0,20.0,0 -71.5495,41.922,0</coordinates></LineString></MultiGeometry></Placemark>
<Placemark><name>ms-cookie-sync.presage.io</name><description><![CDATA[IP: 18.183.0.120
Host: ms-cookie-sync.presage.io
Organisation: -
Location: Somerville, United States
Services: HTTPS
Ports: 443
Sent: 3.4 KB  Received: 4.3 KB  Packets: 30
Status: encrypted  Alerts: 0
First seen: 2025-11-08 14:09:14
Last seen: 2025-11-08 14:09:19]]></description><styleUrl>#encrypted</styleUrl><MultiGeometry><Point><coordinates>-71.0955,42.3828,0</coordinates></Point><LineString><tessellate>1</tessellate><coordinates>77.0,20.0,0 -71.0955,42.3828,0</coordinates></LineString></MultiGeometry></Placemark>
<Placemark><name>unagi-eu.amazon.com</name><description><![CDATA[IP: 3.254.236.135
Host: unagi-eu.amazon.com
Organisation: Amazon
Location: United States
Services: HTTPS
Ports: 443
Sent: 6.0 KB  Received: 222 B  Packets: 16
Status: encrypted  Alerts: 0
First seen: 2025-11-08 14:09:20
Last seen: 2025-11-08 14:09:20]]></description><styleUrl>#encrypted</styleUrl><MultiGeometry><Point><coordinates>-97.822,37.751,0</coordinates></Point><LineString><tessellate>1</tessellate><coordinates>77.0,20.0,0 -97.822,37.751,0</coordinates></LineString></MultiGeometry></Placemark>
<Placemark><name>ec2-54-90-195-224.compute-1.amazonaws.com</name><description><![CDATA[IP: 54.90.195.224
Host: ec2-54-90-195-224.compute-1.amazonaws.com
Organisation: Amazon AWS
Location: Ashburn, United States
Services: HTTPS
Ports: 443
Sent: 4.4 KB  Received: 710 B  Packets: 17
Status: encrypted  Alerts: 0
First seen: 2025-11-08 14:08:56
Last seen: 2025-11-08 14:09:20]]></description><styleUrl>#encrypted</styleUrl><MultiGeometry><Point><coordinates>-77.4728,39.0481,0</coordinates></Point><LineString><tessellate>1</tessellate><coordinates>77.0,20.0,0 -77.4728,39.0481,0</coordinates></LineString></MultiGeometry></Placemark>
<Placemark><name>en.wikipedia.org</name><description><![CDATA[IP: 103.102.166.224
Host: en.wikipedia.org
Organisation: -
Location: United States
Services: HTTPS
Ports: 443
Sent: 396 B  Received: 222 B  Packets: 9
Status: encrypted  Alerts: 0
First seen: 2025-11-08 14:09:07
Last seen: 2025-11-08 14:09:08]]></description><styleUrl>#encrypted</styleUrl><MultiGeometry><Point><coordinates>-97.822,37.751,0</coordinates></Point><LineString><tessellate>1</tessellate><coordinates>77.0,20.0,0 -97.822,37.751,0</coordinates></LineString></MultiGeometry></Placemark>
<Placemark><name>ec2-18-97-36-67.compute-1.amazonaws.com</name><description><![CDATA[IP: 18.97.36.67
Host: ec2-18-97-36-67.compute-1.amazonaws.com
Organisation: Amazon AWS
Location: Cambridge, United States
Services: HTTPS
Ports: 443
Sent: 373 B  Received: 184 B  Packets: 3
Status: encrypted  Alerts: 0
First seen: 2025-11-08 14:08:50
Last seen: 2025-11-08 14:08:50]]></description><styleUrl>#encrypted</styleUrl><MultiGeometry><Point><coordinates>-71.1028,42.3646,0</coordinates></Point><LineString><tessellate>1</tessellate><coordinates>77.0,20.0,0 -71.1028,42.3646,0</coordinates></LineString></MultiGeometry></Placemark>
<Placemark><name>104.18.26.48</name><description><![CDATA[IP: 104.18.26.48
Host: -
Organisation: -
Location: United States
Services: HTTPS
Ports: 443
Sent: 260 B  Received: 237 B  Packets: 6
Status: encrypted  Alerts: 0
First seen: 2025-11-08 14:09:02
Last seen: 2025-11-08 14:09:03]]></description><styleUrl>#encrypted</styleUrl><MultiGeometry><Point><coordinates>-97.822,37.751,0</coordinates></Point><LineString><tessellate>1</tessellate><coordinates>77.0,20.0,0 -97.822,37.751,0</coordinates></LineString></MultiGeometry></Placemark>
<Placemark><name>ec2-65-1-18-34.ap-south-1.compute.amazonaws.com</name><description><![CDATA[IP: 65.1.18.34
Host: ec2-65-1-18-34.ap-south-1.compute.amazonaws.com
Organisation: Amazon AWS
Location: United States
Services: HTTPS
Ports: 443
Sent: 120 B  Received: 176 B  Packets: 4
Status: encrypted  Alerts: 0
First seen: 2025-11-08 14:08:51
Last seen: 2025-11-08 14:08:51]]></description><styleUrl>#encrypted</styleUrl><MultiGeometry><Point><coordinates>-97.822,37.751,0</coordinates></Point><LineString><tessellate>1</tessellate><coordinates>77.0,20.0,0 -97.822,37.751,0</coordinates></LineString></MultiGeometry></Placemark>
<Placemark><name>103.57.36.34.bc.googleusercontent.com</name><description><![CDATA[IP: 34.36.57.103
Host: 103.57.36.34.bc.googleusercontent.com
Organisation: Google
Location: Houston, United States
Services: HTTPS
Ports: 443
Sent: 132 B  Received: 66 B  Packets: 3
Status: encrypted  Alerts: 0
First seen: 2025-11-08 14:08:56
Last seen: 2025-11-08 14:08:56]]></description><styleUrl>#encrypted</styleUrl><MultiGeometry><Point><coordinates>-95.3454,29.9668,0</coordinates></Point><LineString><tessellate>1</tessellate><coordinates>77.0,20.0,0 -95.3454,29.9668,0</coordinates></LineString></MultiGeometry></Placemark>
<Placemark><name>ec2-3-254-239-146.eu-west-1.compute.amazonaws.com</name><description><![CDATA[IP: 3.254.239.146
Host: ec2-3-254-239-146.eu-west-1.compute.amazonaws.com
Organisation: Amazon AWS
Location: United States
Services: HTTPS
Ports: 443
Sent: 54 B  Received: 0 B  Packets: 1
Status: encrypted  Alerts: 0
First seen: 2025-11-08 14:08:56
Last seen: 2025-11-08 14:08:56]]></description><styleUrl>#encrypted</styleUrl><MultiGeometry><Point><coordinates>-97.822,37.751,0</coordinates></Point><LineString><tessellate>1</tessellate><coordinates>77.0,20.0,0 -97.822,37.751,0</coordinates></LineString></MultiGeometry></Placemark>
</Folder>
</Document></kml>